#cP2022  2 14  0  0  0.00000000      96 ORBIT IGb14 HLM  IGS
## 2197  86400.00000000   900.00000000 59624 0.0000000000000
+   32   G01G02G03G04G05G06G07G08G09G10G11G12G13G14G15G16G17
+        G18G19G20G21G22G23G24G25G26G27G28G29G30G31G32  0  0
+          0  0  0  0  0  0  0  0  0  0  0  0  0  0  0  0  0
+          0  0  0  0  0  0  0  0  0  0  0  0  0  0  0  0  0
+          0  0  0  0  0  0  0  0  0  0  0  0  0  0  0  0  0
++         1  1  1  2  2  1  1  2  2  1  2  2  2  2  2  2  2
++         2  2  2  2  2  2  1  1  2  2  2  3  1  2  2  0  0
++         0  0  0  0  0  0  0  0  0  0  0  0  0  0  0  0  0
++         0  0  0  0  0  0  0  0  0  0  0  0  0  0  0  0  0
++         0  0  0  0  0  0  0  0  0  0  0  0  0  0  0  0  0
%c G  cc GPS ccc cccc cccc cccc cccc ccccc ccccc ccccc ccccc
%c cc cc ccc ccc cccc cccc cccc cccc ccccc ccccc ccccc ccccc
%f  1.2500000  1.025000000  0.00000000000  0.000000000000000
%f  0.0000000  0.000000000  0.00000000000  0.000000000000000
%i    0    0    0    0      0      0      0      0         0
%i    0    0    0    0      0      0      0      0         0
/* FINAL ORBIT COMBINATION FROM WEIGHTED AVERAGE OF:        
/* cod emr esa gfz grg jpl mit ngs sio                      
/* REFERENCED TO IGS TIME (IGST) AND TO WEIGHTED MEAN POLE: 
/* PCV:IGS14_2196 OL/AL:FES2004  NONE     Y  ORB:CMB CLK:CMB
*  2022  2 14  0  0  0.00000000
PG01  15659.716008   1997.749488  21143.721610    432.141935  8  6  6  89       
PG02 -14908.307231 -20677.272530  -6552.071849   -650.816145  6  8  4 101       
PG03  20050.065774  -8586.264603  14978.535455   -120.229257  7  2  5  90       
PG04  25667.422258    -48.239573  -6988.062687   -189.720111 12  8  7  89       
PG05 -13874.265735  -6881.093839 -21749.330291    -71.347569  7  8  6 105       
PG06  -4564.119054 -25158.746142   7113.358109    200.713407  3  3  5  77       
PG07   9068.207101 -15080.766697 -19362.639670    310.074404  9  7  8  98       
PG08  25727.455301   6215.779295  -3904.013683    -56.086953 12  7  7 124       
PG09  19252.492622  -8865.354151 -16095.423821   -354.289137 10  9  5  90       
PG10  -9570.604639  22633.480177   9832.641607   -319.749458  7  8  5  98       
PG11 -12536.769225 -22262.559670  -7287.296314    -89.840561  8  8  6  99       
PG12 -19908.396273   4672.209465  16609.532511   -170.633113  6  7  4 103       
PG13 -20875.064486 -13339.171333  -9949.621581    261.271185  8  9 10  95       
PG14  11077.189193 -22353.875744   9006.322554    -83.554203  7  5  4  99       
PG15 -26273.633200  -3614.280142  -3776.922243    -84.043432 10  8  7  57       
PG16  10233.484757  11164.484568 -22071.961974   -469.096620  9  9  5  80       
PG17   4720.821904 -14287.119074  22325.410665    574.742476  7  7  3 119       
PG18  -8754.985261  15445.201357 -19723.314868    240.729538  6  6  8 114       
PG19  -4433.120493 -15646.526839  20779.174554    118.571912  4  7  7  83       
PG20  -7315.040392 -16172.091887 -19832.042478    516.707171  6  9  5  81       
PG21  18342.085899  11254.108412  16641.889387    157.977589  9 10  8 100       
PG22   7816.368989  16230.972442  19975.385293    213.177123  5  4  8  93       
PG23 -16763.970381  20494.773143  -1310.191582      1.578637  7  6  9 101       
PG24 -17951.317208  -5715.611192  18580.515864    274.634971  5  6  5  99       
PG25 -19464.441198  16179.717490   7274.175494    285.137848  8  2  5 107       
PG26    688.948169  20311.432919 -17020.284960    182.991897  5  6  4  96       
PG27  19352.710537  12480.098444 -13771.272172    117.867967  8  7  9 133       
PG28   4617.456273 -20880.163424  16417.361313    401.043957  7  6  8 111       
PG29 -21583.004484   5048.566424 -14721.818215   -479.880389 13  9 10  99       
PG30   2890.561092 -22213.438878 -14008.818867   -513.215013  8  5  7 103       
PG31   5832.789781  25268.243593   4301.997645   -164.609122  8  6  9 111       
PG32    712.374887  15511.578940  21691.385667    -67.248667  5  4  8  97       
*  2022  2 14  0 15  0.00000000
PG01  16525.873393   4244.934466  20173.171591    432.133441  7  6  5  89       
PG02 -14989.241987 -21388.050386  -3762.571666   -650.816827  6  7  3  92       
PG03  19066.639145  -7016.728017  16947.356919   -120.244607  7  1  5  93       
PG04  26263.351246    287.689601  -4232.099823   -189.718101 10  8  7  80       
PG05 -12475.949938  -8904.972202 -21849.125830    -71.348883  7  7  5 101       
PG06  -4033.632282 -24342.033330   9801.634437    200.723977  4  2  5  83       
PG07  10100.286458 -12947.057373 -20394.235655    310.076925  9  7  7  92       
PG08  25113.559505   6363.715535  -6663.459405    -56.087545 11  6  7 122       
PG09  20937.696010  -8496.567069 -14054.795019   -354.287686 10  8  5  74       
PG10 -10325.779823  23268.608317   7163.801202   -319.758797  6  7  5  91       
PG11 -12537.667842 -22980.706223  -4538.060595    -89.829283  7  7  6 104       
PG12 -18673.899273   3030.480183  18321.097365   -170.638147  6  7  4 102       
PG13 -19616.598389 -13201.151817 -12412.013761    261.277018  8  8 10  81       
PG14  11839.396836 -22869.265955   6346.507970    -83.558173  7  5  3  92       
PG15 -25735.698911  -3917.807978  -6471.676303    -84.040901 10  8  7  58       
PG16   8557.370859  12954.147013 -21761.278087   -469.101044  9  8  5  87       
PG17   7111.390541 -13823.133423  21978.506909    574.746819  7  8  3 119       
PG18  -9701.414683  13326.734995 -20805.141824    240.722229  5  7  8 113       
PG19  -2020.790309 -15133.379530  21496.120378    118.576658  4  6  6  86       
PG20  -6166.414926 -18048.582577 -18585.921360    516.706786  6  9  5  82       
PG21  18994.550148  12786.532689  14653.173615    157.978569  9  9  8 105       
PG22   5587.576347  15846.558855  21009.395617    213.182204  5  4  7  97       
PG23 -16779.735804  20099.965460  -4162.047485      1.575371  7  5  9  86       
PG24 -18765.829346  -7645.819251  17080.890841    274.633307  4  5  5 101       
PG25 -19066.114796  15196.650810   9902.788763    285.142734  8  2  5 109       
PG26   -529.973107  21714.185457 -15157.215351    182.994827  5  6  4  96       
PG27  17699.106484  12412.464972 -15887.565737    117.882746  8  7  9 137       
PG28   5844.519431 -22018.773692  14362.363859    401.036172  7  5  7 116       
PG29 -23066.021751   4601.776891 -12440.178776   -479.884524 13  9 10  94       
PG30   3770.969525 -20687.796628 -16006.686573   -513.217129  8  5  6  99       
PG31   5305.438329  24751.874219   7071.433585   -164.610649  9  6  8 105       
PG32  -1733.707409  15233.859334  21814.256985    -67.254751  4  3  7  96       
*  2022  2 14  0 30  0.00000000
PG01  17457.856944   6317.946789  18849.993793    432.124921  7  6  4  88       
PG02 -14945.833207 -21812.548278   -906.967974   -650.817488  5  7  3  61       
PG03  18053.878221  -5223.874200  18621.130618   -120.259958  7     5 100       
PG04  26561.944439    561.131114  -1403.647685   -189.716107  8  8  7  95       
PG05 -11189.698269 -10992.391423 -21578.400023    -71.350199  7  7  4  93       
PG06  -3328.164067 -23291.307405  12321.022238    200.734617  4     5  87       
PG07  11276.791624 -10781.380784 -21059.587416    310.079429  8  6  6  84       
PG08  24204.859469   6531.751327  -9310.635328    -56.089360 11  6  7 121       
PG09  22396.300644  -8225.382169 -11773.653462   -354.286207 10  8  6  62       
PG10 -10876.102123  23683.445880   4370.075366   -319.768226  6  6  5  81       
PG11 -12451.915726 -23407.656471  -1710.793558    -89.818053  7  7  6  88       
PG12 -17418.940252   1184.623700  19709.273730   -170.643096  6  7  3 109       
PG13 -18092.849569 -13078.974941 -14664.239464    261.282415  8  7  9  92       
PG14  12393.765713 -23173.807251   3577.000722    -83.562245  7  5  4 118       
PG15 -24920.488538  -4261.602191  -9058.326017    -84.038348 10  8  7  95       
PG16   7011.926820  14792.334680 -21083.308412   -469.105235 10  8  4  81       
PG17   9466.495269 -13501.791583  21268.365599    574.751927  7  8  4 126       
PG18 -10803.112218  11170.187870 -21528.316683    240.714972  5  7  7 114       
PG19    477.886825 -14741.617447  21834.996079    118.580646  4  6  5  98       
PG20  -5179.622063 -19834.586657 -17022.506271    516.706920  6  8  5  78       
PG21  19609.508268  14085.132242  12429.237221    157.979005  9  9  8  96       
PG22   3246.598805  15567.911785  21695.474352    213.187487  5  3  6  95       
PG23 -16646.569541  19435.650133  -6941.882062      1.572158  7  4  9  98       
PG24 -19575.784168  -9369.597648  15285.378508    274.631631  4  5  5 105       
PG25 -18558.578494  13950.225256  12356.170923    285.147604  7  3  4 113       
PG26  -1566.476738  22981.306572 -13031.135429    182.997773  5  6  4  81       
PG27  15821.945817  12422.741761 -17738.529233    117.897479  8  6  9 133       
PG28   6858.440371 -23035.403768  12070.253437    401.028853  7  5  7 120       
PG29 -24303.803225   4274.737789  -9945.589519   -479.888949 12  9 10 107       
PG30   4811.827132 -19015.591195 -17724.946440   -513.219172  7  5  6  93       
PG31   4621.999705  23981.436727   9715.282567   -164.612282  8  5  8 105       
PG32  -4185.799183  15084.189692  21566.111433    -67.260836  4  3  6 100       
EOF
